KUIPER-00125            
1 65954U 25228H   25362.91668981  .00027027  00000+0  73546-3 0  9999
2 65954  51.8792 302.2885 0006475  81.7656   9.5884 15.37307967  5485
KUIPER-00126            
1 65955U 25228J   25362.91668981 -.00014215  00000+0 -18273-2 0  9992
2 65955  51.8998 313.5707 0001545  70.6163  69.5377 14.80210745  3468
KUIPER-00127            
1 65956U 25228K   25362.14262496  .00015719  00000+0  13405-2 0  9999
2 65956  51.8964 313.6552 0005885 111.3859 248.7740 14.97855347 12687
KUIPER-00128            
1 65957U 25228L   25362.91668981 -.01079370  00000+0 -10782+0 0  9992
2 65957  51.8941 306.7667 0003571 109.2592 196.8450 14.94264627  4351
KUIPER-00129            
1 65958U 25228M   25362.91668981 -.00866079  00000+0 -51713-1 0  9993
2 65958  51.8885 303.7791 0002456  53.2998  47.9573 15.13273457  5337
KUIPER-00130            
1 65959U 25228N   25362.91668981 -.01204600  00000+0 -93555-1 0  9991
2 65959  51.8879 305.0546 0004882  96.2426 100.8341 15.04204437  5550
KUIPER-00134            
1 65960U 25228P   25362.27365346  .00052075  00000+0  14586-2 0  9993
2 65960  51.8782 305.6617 0007674  73.7511 286.4319 15.36085264 12809
KUIPER-00135            
1 65961U 25228Q   25362.91668981 -.01807896  00000+0 -13896+0 0  9998
2 65961  51.8937 305.3687 0006184  91.7841 222.3629 15.04856578  5766
